[{"OBJECT_NAME":"SPARK 2","OBJECT_ID":"2016-081D","EPOCH":"2026-03-09T21:43:21.567936","MEAN_MOTION":14.59036805,"ECCENTRICITY":0.00241409,"INCLINATION":98.5438,"RA_OF_ASC_NODE":55.7698,"ARG_OF_PERICENTER":270.8992,"MEAN_ANOMALY":88.944,"EPHEMERIS_TYPE":0,"CLASSIFICATION_TYPE":"U","NORAD_CAT_ID":41901,"ELEMENT_SET_NO":999,"REV_AT_EPOCH":48964,"BSTAR":0.00022054708,"MEAN_MOTION_DOT":9.9e-6,"MEAN_MOTION_DDOT":0},{"OBJECT_NAME":"NOAA 16 DEB","OBJECT_ID":"2000-055ER","EPOCH":"2026-03-08T03:28:25.111776","MEAN_MOTION":14.49697838,"ECCENTRICITY":0.00334917,"INCLINATION":99.0587,"RA_OF_ASC_NODE":316.016,"ARG_OF_PERICENTER":49.7946,"MEAN_ANOMALY":310.6168,"EPHEMERIS_TYPE":0,"CLASSIFICATION_TYPE":"U","NORAD_CAT_ID":41236,"ELEMENT_SET_NO":999,"REV_AT_EPOCH":53309,"BSTAR":0.0030041788,"MEAN_MOTION_DOT":0.00011611,"MEAN_MOTION_DDOT":0}]
